satellite_id,OBJECT_NAME,OBJECT_ID,EPOCH,MEAN_MOTION,ECCENTRICITY,INCLINATION,RA_OF_ASC_NODE,ARG_OF_PERICENTER,MEAN_ANOMALY,EPHEMERIS_TYPE,CLASSIFICATION_TYPE,NORAD_CAT_ID,ELEMENT_SET_NO,REV_AT_EPOCH,BSTAR,MEAN_MOTION_DOT,MEAN_MOTION_DDOT,operator,orbit_type,eccentricity_risk
117,SKYNET 5C,2008-030A,2026-06-20T09:19:27.880032,1.00271687,0.0004099,3.7981,77.0053,19.6039,294.063,0,U,33055,999,6598,0,-1.45e-06,0,GEO,GEO,0.4099
118,TURKSAT 3A,2008-030B,2026-06-20T06:11:04.434144,1.00272302,0.0005125,0.064,80.9679,352.7047,329.5366,0,U,33056,999,5238,0,1.41e-06,0,GEO,GEO,0.5125000000000001
119,INTELSAT 25 (IS-25),2008-034A,2026-06-20T09:55:05.555136,0.99033445,0.0003595,2.7194,80.3377,60.7301,23.6093,0,U,33153,999,6572,0,-1.33e-06,0,GEO,GEO,0.3595
120,ECHOSTAR 11,2008-035A,2026-06-20T08:38:38.700096,1.00270893,0.0002598,1.0145,84.1489,344.4932,219.789,0,U,33207,999,5124,0,-6.2e-07,0,GEO,GEO,0.2598
121,SUPERBIRD-C2,2008-038A,2026-06-20T10:57:03.475872,1.00271955,0.0006108,2.3705,81.225,26.3892,101.312,0,U,33274,999,10576,0,-3.11e-06,0,GEO,GEO,0.6108
122,INMARSAT 4-F3,2008-039A,2026-06-20T08:30:38.771424,1.00272478,0.0002747,4.2956,31.633,59.7887,206.8106,0,U,33278,999,4657,0,-1.47e-06,0,GEO,GEO,0.2747
123,NIMIQ 4,2008-044A,2026-06-20T09:01:07.137984,1.00266901,0.0002058,0.0407,55.0646,36.3314,230.5036,0,U,33373,999,6501,0,0.0,0,GEO,GEO,0.2057999999999999
124,GALAXY 19 (G-19),2008-045A,2026-06-20T08:56:52.544832,1.00271248,0.0002625,0.0278,264.2718,191.2038,210.3278,0,U,33376,999,6493,0,-1.44e-06,0,GEO,GEO,0.2625
125,ASTRA 1M,2008-057A,2026-06-20T07:47:19.221792,1.00273362,0.0004908,0.3056,82.5193,26.1383,296.0779,0,U,33436,999,4576,0,1.16e-06,0,GEO,GEO,0.4908
126,EXPRESS-AM44,2009-007A,2026-06-21T09:18:37.064736,1.00270921,0.0003919,3.4757,78.3467,3.2357,316.636,0,U,33595,999,5232,0,-9.2e-07,0,GEO,GEO,0.3918999999999999
127,NSS-9,2009-008A,2026-06-20T08:34:00.923232,1.00271482,0.0002072,1.2711,82.6304,348.7007,148.7959,0,U,33749,999,6355,0,6.7e-07,0,GEO,GEO,0.2072
128,TELSTAR 11N,2009-009A,2026-06-20T04:57:19.107360,1.00269868,0.00023294,0.0298,74.3216,17.9253,212.9246,0,U,34111,999,4627,0,-2.56e-06,0,GEO,GEO,0.23294
129,WGS F2 (USA 204),2009-017A,2026-06-20T06:18:38.860128,1.00272406,4.1e-06,0.0187,14.3909,351.5807,54.6689,0,U,34713,999,4564,0,6.3e-07,0,GEO,GEO,0.0040999999999999
130,SES-7 (PROTOSTAR 2),2009-027A,2026-06-20T09:55:20.529984,1.00270419,4.45e-05,0.0464,72.0603,282.4348,171.2077,0,U,34941,999,6266,0,-3.49e-06,0,GEO,GEO,0.0445
131,MEASAT-3A,2009-032A,2026-06-20T11:06:32.450976,1.00271965,0.0002991,0.0229,9.7367,72.487,153.095,0,U,35362,999,806,0,-1.15e-06,0,GEO,GEO,0.2991
132,GOES 14,2009-033A,2026-06-20T08:21:42.534144,1.00110067,0.0001921,1.6993,83.008,13.0479,77.9267,0,U,35491,999,662,0,-3.08e-06,0,GEO,GEO,0.1921
133,FM-5,2009-034A,2026-06-20T09:12:38.572128,1.00272217,8.51e-05,0.0202,292.9387,30.9605,356.6938,0,U,35493,999,4667,0,-2.05e-06,0,GEO,GEO,0.0851
134,TERRESTAR-1,2009-035A,2026-06-20T10:03:37.380960,1.00272882,0.000269,5.1794,48.7956,33.8323,225.8999,0,U,35496,999,6216,0,-6.3e-07,0,GEO,NON_GEO,0.2689999999999999
135,ASIASAT 5,2009-042A,2026-06-21T13:15:41.486400,1.00265222,0.0001538,0.0349,55.7951,37.1346,116.3031,0,U,35696,999,6175,0,0.0,0,GEO,GEO,0.1538
136,JCSAT-12 (JCSAT-RA),2009-044A,2026-06-20T10:54:59.933376,1.00269413,6.77e-05,0.012,356.2714,303.6782,264.5034,0,U,35755,999,6164,0,-3.32e-06,0,GEO,GEO,0.0677
137,OPTUS D3,2009-044B,2026-06-19T22:10:23.534400,1.00270138,0.0002959,0.8768,268.9127,176.0247,311.9383,0,U,35756,999,6159,0,-1.51e-06,0,GEO,GEO,0.2959
138,NIMIQ 5,2009-050A,2026-06-20T09:03:44.386848,1.00269631,0.000278,0.0204,10.6229,73.2484,247.9606,0,U,35873,999,6137,0,0.0,0,GEO,GEO,0.2779999999999999
139,AMAZONAS 2,2009-054A,2026-06-20T09:03:59.364288,1.002725,0.0003227,1.8249,83.0119,7.8469,241.7331,0,U,35942,999,6121,0,-2.64e-06,0,GEO,GEO,0.3227
140,COMSATBW-1,2009-054B,2026-06-20T02:51:51.852096,1.0026925,0.0002841,0.0525,157.9793,289.0909,287.2692,0,U,35943,999,6133,0,2e-07,0,GEO,GEO,0.2841
141,NSS-12,2009-058A,2026-06-20T09:40:48.334080,1.00273043,0.0005078,0.0895,275.1676,143.768,51.875,0,U,36032,999,6095,0,6.7e-07,0,GEO,GEO,0.5078
142,THOR 6,2009-058B,2026-06-20T05:58:58.094400,1.00271829,0.0001684,0.0302,109.2282,338.7514,269.38,0,U,36033,999,6103,0,-1.5e-07,0,GEO,GEO,0.1684
143,INTELSAT 14 (IS-14),2009-064A,2026-06-20T09:11:36.134304,1.00271535,0.0002399,0.0165,337.1078,111.3226,273.07,0,U,36097,999,6063,0,-2.78e-06,0,GEO,GEO,0.2399
144,INTELSAT 15 (IS-15),2009-067A,2026-06-20T09:48:43.665408,1.00272124,0.0002207,0.017,354.0226,95.9991,50.9258,0,U,36106,999,4126,0,-1.9e-06,0,GEO,GEO,0.2207
145,WGS F3 (USA 211),2009-068A,2026-06-20T00:50:38.717376,1.00271023,2.287e-05,0.3243,85.7411,285.9294,139.2418,0,U,36108,999,4662,0,5.9e-07,0,GEO,GEO,0.0228699999999999
