SKYNET 5C               
1 33055U 08030A   26171.38851713 -.00000145  00000+0  00000+0 0  9999
2 33055   3.7981  77.0053 0004099  19.6039 294.0630  1.00271687 65982
TURKSAT 3A              
1 33056U 08030B   26171.25769021  .00000141  00000+0  00000+0 0  9991
2 33056   0.0640  80.9679 0005125 352.7047 329.5366  1.00272302 52388
INTELSAT 25 (IS-25)     
1 33153U 08034A   26171.41325874 -.00000133  00000+0  00000+0 0  9997
2 33153   2.7194  80.3377 0003595  60.7301  23.6093  0.99033445 65727
ECHOSTAR 11             
1 33207U 08035A   26171.36017014 -.00000062  00000+0  00000+0 0  9997
2 33207   1.0145  84.1489 0002598 344.4932 219.7890  1.00270893 51243
SUPERBIRD-C2            
1 33274U 08038A   26171.45629023 -.00000311  00000+0  00000+0 0  9990
2 33274   2.3705  81.2250 0006108  26.3892 101.3120  1.00271955105768
INMARSAT 4-F3           
1 33278U 08039A   26171.35461541 -.00000147  00000+0  00000+0 0  9990
2 33278   4.2956  31.6330 0002747  59.7887 206.8106  1.00272478 46577
NIMIQ 4                 
1 33373U 08044A   26171.37577706  .00000000  00000+0  00000+0 0  9992
2 33373   0.0407  55.0646 0002058  36.3314 230.5036  1.00266901 65019
GALAXY 19 (G-19)        
1 33376U 08045A   26171.37283038 -.00000144  00000+0  00000+0 0  9998
2 33376   0.0278 264.2718 0002625 191.2038 210.3278  1.00271248 64930
ASTRA 1M                
1 33436U 08057A   26171.32452803  .00000116  00000+0  00000+0 0  9999
2 33436   0.3056  82.5193 0004908  26.1383 296.0779  1.00273362 45763
EXPRESS-AM44            
1 33595U 09007A   26172.38792899 -.00000092  00000+0  00000+0 0  9994
2 33595   3.4757  78.3467 0003919   3.2357 316.6360  1.00270921 52329
NSS-9                   
1 33749U 09008A   26171.35695513  .00000067  00000+0  00000+0 0  9998
2 33749   1.2711  82.6304 0002072 348.7007 148.7959  1.00271482 63550
TELSTAR 11N             
1 34111U 09009A   26171.20647115 -.00000256  00000+0  00000+0 0  9993
2 34111   0.0298  74.3216 0002329  17.9253 212.9246  1.00269868 46272
WGS F2 (USA 204)        
1 34713U 09017A   26171.26294977  .00000063  00000+0  00000+0 0  9995
2 34713   0.0187  14.3909 0000041 351.5807  54.6689  1.00272406 45645
SES-7 (PROTOSTAR 2)     
1 34941U 09027A   26171.41343206 -.00000349  00000+0  00000+0 0  9994
2 34941   0.0464  72.0603 0000445 282.4348 171.2077  1.00270419 62668
MEASAT-3A               
1 35362U 09032A   26171.46287559 -.00000115  00000+0  00000+0 0  9992
2 35362   0.0229   9.7367 0002991  72.4870 153.0950  1.00271965  8063
GOES 14                 
1 35491U 09033A   26171.34840896 -.00000308  00000+0  00000+0 0  9996
2 35491   1.6993  83.0080 0001921  13.0479  77.9267  1.00110067  6626
FM-5                    
1 35493U 09034A   26171.38377977 -.00000205  00000+0  00000+0 0  9994
2 35493   0.0202 292.9387 0000851  30.9605 356.6938  1.00272217 46672
TERRESTAR-1             
1 35496U 09035A   26171.41918265 -.00000063  00000+0  00000+0 0  9995
2 35496   5.1794  48.7956 0002690  33.8323 225.8999  1.00272882 62162
ASIASAT 5               
1 35696U 09042A   26172.55256350  .00000000  00000+0  00000+0 0  9991
2 35696   0.0349  55.7951 0001538  37.1346 116.3031  1.00265222 61754
JCSAT-12 (JCSAT-RA)     
1 35755U 09044A   26171.45486034 -.00000332  00000+0  00000+0 0  9990
2 35755   0.0120 356.2714 0000677 303.6782 264.5034  1.00269413 61644
OPTUS D3                
1 35756U 09044B   26170.92388350 -.00000151  00000+0  00000+0 0  9993
2 35756   0.8768 268.9127 0002959 176.0247 311.9383  1.00270138 61595
NIMIQ 5                 
1 35873U 09050A   26171.37759707  .00000000  00000+0  00000+0 0  9990
2 35873   0.0204  10.6229 0002780  73.2484 247.9606  1.00269631 61378
AMAZONAS 2              
1 35942U 09054A   26171.37777042 -.00000264  00000+0  00000+0 0  9996
2 35942   1.8249  83.0119 0003227   7.8469 241.7331  1.00272500 61217
COMSATBW-1              
1 35943U 09054B   26171.11935014  .00000020  00000+0  00000+0 0  9993
2 35943   0.0525 157.9793 0002841 289.0909 287.2692  1.00269250 61335
NSS-12                  
1 36032U 09058A   26171.40333720  .00000067  00000+0  00000+0 0  9996
2 36032   0.0895 275.1676 0005078 143.7680  51.8750  1.00273043 60957
THOR 6                  
1 36033U 09058B   26171.24928350 -.00000015  00000+0  00000+0 0  9992
2 36033   0.0302 109.2282 0001684 338.7514 269.3800  1.00271829 61034
INTELSAT 14 (IS-14)     
1 36097U 09064A   26171.38305711 -.00000278  00000+0  00000+0 0  9995
2 36097   0.0165 337.1078 0002399 111.3226 273.0700  1.00271535 60635
INTELSAT 15 (IS-15)     
1 36106U 09067A   26171.40883872 -.00000190  00000+0  00000+0 0  9994
2 36106   0.0170 354.0226 0002207  95.9991  50.9258  1.00272124 41262
WGS F3 (USA 211)        
1 36108U 09068A   26171.03517034  .00000059  00000+0  00000+0 0  9993
2 36108   0.3243  85.7411 0000228 285.9294 139.2418  1.00271023 46621
